HULIANWANG DIGUI-140    
1 67438U 26007D   26194.41856860 -.00000106  00000+0  38501-4 0  9991
2 67438  50.0068 351.9598 0000886 109.6664 250.4304 13.29325955 24270
HULIANWANG DIGUI-141    
1 67439U 26007E   26194.46030307 -.00000112  00000+0  25070-4 0  9991
2 67439  50.0063 351.5062 0000889 108.9927 251.1042 13.29326796 24287
HULIANWANG DIGUI-142    
1 67440U 26007F   26194.45197933 -.00000119  00000+0  99839-5 0  9993
2 67440  50.0139 351.5775 0000892 107.7654 252.3316 13.29326523 24287
HULIANWANG DIGUI-143    
1 67441U 26007G   26194.44366774 -.00000114  00000+0  21307-4 0  9993
2 67441  50.0120 351.5055 0000750 110.4378 249.6575 13.29324935 24287
HULIANWANG DIGUI-144    
1 67442U 26007H   26194.43513243 -.00000113  00000+0  23748-4 0  9998
2 67442  50.0105 351.4460 0000895 112.3029 247.7938 13.29329147 24286
HULIANWANG DIGUI-145    
1 67443U 26007J   26194.42696293 -.00000111  00000+0  28578-4 0  9999
2 67443  50.0110 351.4091 0000856 106.5631 253.5335 13.29325690 24289
HULIANWANG DIGUI-146    
1 67522U 26013A   26194.39658274 -.00000067  00000+0  12243-3 0  9998
2 67522  50.0069 261.9059 0001357 212.6480 147.4309 13.29325035 23539
HULIANWANG DIGUI-147    
1 67523U 26013B   26193.41075307 -.00000184  00000+0 -12885-3 0  9994
2 67523  50.0059 265.3202 0001348 217.9967 142.0810 13.29331700 23405
HULIANWANG DIGUI-148    
1 67524U 26013C   26194.45488429 -.00000074  00000+0  10795-3 0  9998
2 67524  50.0088 261.5640 0001230 212.0195 148.0602 13.29326610 23545
HULIANWANG DIGUI-149    
1 67525U 26013D   26194.44667831 -.00000079  00000+0  96234-4 0  9992
2 67525  50.0078 261.5127 0001488 213.6690 146.4088 13.29331440 23544
HULIANWANG DIGUI-150    
1 67526U 26013E   26194.42998330 -.00000061  00000+0  13665-3 0  9999
2 67526  50.0045 261.3682 0001317 212.6644 147.4147 13.29325664 23562
HULIANWANG DIGUI-151    
1 67527U 26013F   26192.18292347 -.00000166  00000+0 -89594-4 0  9998
2 67527  50.0104 269.5651 0001249 200.9047 159.1774 13.29329165 23247
HULIANWANG DIGUI-152    
1 67528U 26013G   26194.42155505 -.00000082  00000+0  90659-4 0  9992
2 67528  50.0033 261.3145 0001281 213.8477 146.2314 13.29332341 23543
HULIANWANG DIGUI-153    
1 67529U 26013H   26192.23306955 -.00000107  00000+0  37228-4 0  9998
2 67529  50.0049 269.0930 0001321 210.4596 149.6200 13.29325259 23246
HULIANWANG DIGUI-154    
1 67530U 26013J   26194.40483686 -.00000078  00000+0  10007-3 0  9990
2 67530  50.0057 261.2689 0001251 212.8177 147.2617 13.29332105 23531
HULIANWANG DIGUI-155    
1 68129U 26047A   26194.39154919 -.00000103  00000+0  44655-4 0  9990
2 68129  50.0048 322.4016 0000874 193.3119 166.7730 13.29333766 16559
