{"fetched_at":"2026-07-13T18:16:58.106Z","source":"https://celestrak.org/NORAD/elements/gp.php?NAME=HULIANWANG&FORMAT=JSON","constellation":"guowang","records":[{"OBJECT_NAME":"HULIANWANG DIGUI-140","OBJECT_ID":"2026-007D","EPOCH":"2026-07-13T10:02:44.327040","CLASSIFICATION_TYPE":"U","MEAN_MOTION":13.29325955,"ECCENTRICITY":0.0000886,"INCLINATION":50.0068,"RA_OF_ASC_NODE":351.9598,"ARG_OF_PERICENTER":109.6664,"MEAN_ANOMALY":250.4304,"EPHEMERIS_TYPE":0,"NORAD_CAT_ID":67438,"ELEMENT_SET_NO":999,"REV_AT_EPOCH":2427,"BSTAR":0.000038501,"MEAN_MOTION_DOT":-0.00000106,"MEAN_MOTION_DDOT":0},{"OBJECT_NAME":"HULIANWANG DIGUI-141","OBJECT_ID":"2026-007E","EPOCH":"2026-07-13T11:02:50.185248","CLASSIFICATION_TYPE":"U","MEAN_MOTION":13.29326796,"ECCENTRICITY":0.0000889,"INCLINATION":50.0063,"RA_OF_ASC_NODE":351.5062,"ARG_OF_PERICENTER":108.9927,"MEAN_ANOMALY":251.1042,"EPHEMERIS_TYPE":0,"NORAD_CAT_ID":67439,"ELEMENT_SET_NO":999,"REV_AT_EPOCH":2428,"BSTAR":0.00002507,"MEAN_MOTION_DOT":-0.00000112,"MEAN_MOTION_DDOT":0},{"OBJECT_NAME":"HULIANWANG DIGUI-142","OBJECT_ID":"2026-007F","EPOCH":"2026-07-13T10:50:51.014112","CLASSIFICATION_TYPE":"U","MEAN_MOTION":13.29326523,"ECCENTRICITY":0.0000892,"INCLINATION":50.0139,"RA_OF_ASC_NODE":351.5775,"ARG_OF_PERICENTER":107.7654,"MEAN_ANOMALY":252.3316,"EPHEMERIS_TYPE":0,"NORAD_CAT_ID":67440,"ELEMENT_SET_NO":999,"REV_AT_EPOCH":2428,"BSTAR":0.0000099839,"MEAN_MOTION_DOT":-0.00000119,"MEAN_MOTION_DDOT":0},{"OBJECT_NAME":"HULIANWANG DIGUI-143","OBJECT_ID":"2026-007G","EPOCH":"2026-07-13T10:38:52.892736","CLASSIFICATION_TYPE":"U","MEAN_MOTION":13.29324935,"ECCENTRICITY":0.000075,"INCLINATION":50.012,"RA_OF_ASC_NODE":351.5055,"ARG_OF_PERICENTER":110.4378,"MEAN_ANOMALY":249.6575,"EPHEMERIS_TYPE":0,"NORAD_CAT_ID":67441,"ELEMENT_SET_NO":999,"REV_AT_EPOCH":2428,"BSTAR":0.000021307,"MEAN_MOTION_DOT":-0.00000114,"MEAN_MOTION_DDOT":0},{"OBJECT_NAME":"HULIANWANG DIGUI-144","OBJECT_ID":"2026-007H","EPOCH":"2026-07-13T10:26:35.441952","CLASSIFICATION_TYPE":"U","MEAN_MOTION":13.29329147,"ECCENTRICITY":0.0000895,"INCLINATION":50.0105,"RA_OF_ASC_NODE":351.446,"ARG_OF_PERICENTER":112.3029,"MEAN_ANOMALY":247.7938,"EPHEMERIS_TYPE":0,"NORAD_CAT_ID":67442,"ELEMENT_SET_NO":999,"REV_AT_EPOCH":2428,"BSTAR":0.000023748,"MEAN_MOTION_DOT":-0.00000113,"MEAN_MOTION_DDOT":0},{"OBJECT_NAME":"HULIANWANG DIGUI-145","OBJECT_ID":"2026-007J","EPOCH":"2026-07-13T10:14:49.597152","CLASSIFICATION_TYPE":"U","MEAN_MOTION":13.2932569,"ECCENTRICITY":0.0000856,"INCLINATION":50.011,"RA_OF_ASC_NODE":351.4091,"ARG_OF_PERICENTER":106.5631,"MEAN_ANOMALY":253.5335,"EPHEMERIS_TYPE":0,"NORAD_CAT_ID":67443,"ELEMENT_SET_NO":999,"REV_AT_EPOCH":2428,"BSTAR":0.000028578,"MEAN_MOTION_DOT":-0.00000111,"MEAN_MOTION_DDOT":0},{"OBJECT_NAME":"HULIANWANG DIGUI-146","OBJECT_ID":"2026-013A","EPOCH":"2026-07-13T09:31:04.748736","CLASSIFICATION_TYPE":"U","MEAN_MOTION":13.29325035,"ECCENTRICITY":0.0001357,"INCLINATION":50.0069,"RA_OF_ASC_NODE":261.9059,"ARG_OF_PERICENTER":212.648,"MEAN_ANOMALY":147.4309,"EPHEMERIS_TYPE":0,"NORAD_CAT_ID":67522,"ELEMENT_SET_NO":999,"REV_AT_EPOCH":2353,"BSTAR":0.00012243,"MEAN_MOTION_DOT":-6.7e-7,"MEAN_MOTION_DDOT":0},{"OBJECT_NAME":"HULIANWANG DIGUI-147","OBJECT_ID":"2026-013B","EPOCH":"2026-07-12T09:51:29.065248","CLASSIFICATION_TYPE":"U","MEAN_MOTION":13.293317,"ECCENTRICITY":0.00013483,"INCLINATION":50.0059,"RA_OF_ASC_NODE":265.3202,"ARG_OF_PERICENTER":217.9967,"MEAN_ANOMALY":142.081,"EPHEMERIS_TYPE":0,"NORAD_CAT_ID":67523,"ELEMENT_SET_NO":999,"REV_AT_EPOCH":2340,"BSTAR":-0.00012884783,"MEAN_MOTION_DOT":-0.00000184,"MEAN_MOTION_DDOT":0},{"OBJECT_NAME":"HULIANWANG DIGUI-148","OBJECT_ID":"2026-013C","EPOCH":"2026-07-13T10:55:02.002656","CLASSIFICATION_TYPE":"U","MEAN_MOTION":13.2932661,"ECCENTRICITY":0.000123,"INCLINATION":50.0088,"RA_OF_ASC_NODE":261.564,"ARG_OF_PERICENTER":212.0195,"MEAN_ANOMALY":148.0602,"EPHEMERIS_TYPE":0,"NORAD_CAT_ID":67524,"ELEMENT_SET_NO":999,"REV_AT_EPOCH":2354,"BSTAR":0.00010795,"MEAN_MOTION_DOT":-7.4e-7,"MEAN_MOTION_DDOT":0},{"OBJECT_NAME":"HULIANWANG DIGUI-149","OBJECT_ID":"2026-013D","EPOCH":"2026-07-13T10:43:13.005984","CLASSIFICATION_TYPE":"U","MEAN_MOTION":13.2933144,"ECCENTRICITY":0.0001488,"INCLINATION":50.0078,"RA_OF_ASC_NODE":261.5127,"ARG_OF_PERICENTER":213.669,"MEAN_ANOMALY":146.4088,"EPHEMERIS_TYPE":0,"NORAD_CAT_ID":67525,"ELEMENT_SET_NO":999,"REV_AT_EPOCH":2354,"BSTAR":0.000096234,"MEAN_MOTION_DOT":-7.9e-7,"MEAN_MOTION_DDOT":0},{"OBJECT_NAME":"HULIANWANG DIGUI-150","OBJECT_ID":"2026-013E","EPOCH":"2026-07-13T10:19:10.557120","CLASSIFICATION_TYPE":"U","MEAN_MOTION":13.29325664,"ECCENTRICITY":0.0001317,"INCLINATION":50.0045,"RA_OF_ASC_NODE":261.3682,"ARG_OF_PERICENTER":212.6644,"MEAN_ANOMALY":147.4147,"EPHEMERIS_TYPE":0,"NORAD_CAT_ID":67526,"ELEMENT_SET_NO":999,"REV_AT_EPOCH":2356,"BSTAR":0.00013665,"MEAN_MOTION_DOT":-6.1e-7,"MEAN_MOTION_DDOT":0},{"OBJECT_NAME":"HULIANWANG DIGUI-151","OBJECT_ID":"2026-013F","EPOCH":"2026-07-11T04:23:24.587808","CLASSIFICATION_TYPE":"U","MEAN_MOTION":13.29329165,"ECCENTRICITY":0.00012496,"INCLINATION":50.0104,"RA_OF_ASC_NODE":269.5651,"ARG_OF_PERICENTER":200.9047,"MEAN_ANOMALY":159.1774,"EPHEMERIS_TYPE":0,"NORAD_CAT_ID":67527,"ELEMENT_SET_NO":999,"REV_AT_EPOCH":2324,"BSTAR":-0.000089593573,"MEAN_MOTION_DOT":-0.00000166,"MEAN_MOTION_DDOT":0},{"OBJECT_NAME":"HULIANWANG DIGUI-152","OBJECT_ID":"2026-013G","EPOCH":"2026-07-13T10:07:02.356320","CLASSIFICATION_TYPE":"U","MEAN_MOTION":13.29332341,"ECCENTRICITY":0.0001281,"INCLINATION":50.0033,"RA_OF_ASC_NODE":261.3145,"ARG_OF_PERICENTER":213.8477,"MEAN_ANOMALY":146.2314,"EPHEMERIS_TYPE":0,"NORAD_CAT_ID":67528,"ELEMENT_SET_NO":999,"REV_AT_EPOCH":2354,"BSTAR":0.000090659,"MEAN_MOTION_DOT":-8.2e-7,"MEAN_MOTION_DDOT":0},{"OBJECT_NAME":"HULIANWANG DIGUI-153","OBJECT_ID":"2026-013H","EPOCH":"2026-07-11T05:35:37.209120","CLASSIFICATION_TYPE":"U","MEAN_MOTION":13.29325259,"ECCENTRICITY":0.00013218,"INCLINATION":50.0049,"RA_OF_ASC_NODE":269.093,"ARG_OF_PERICENTER":210.4596,"MEAN_ANOMALY":149.62,"EPHEMERIS_TYPE":0,"NORAD_CAT_ID":67529,"ELEMENT_SET_NO":999,"REV_AT_EPOCH":2324,"BSTAR":0.000037227532,"MEAN_MOTION_DOT":-0.00000107,"MEAN_MOTION_DDOT":0},{"OBJECT_NAME":"HULIANWANG DIGUI-154","OBJECT_ID":"2026-013J","EPOCH":"2026-07-13T09:42:57.904704","CLASSIFICATION_TYPE":"U","MEAN_MOTION":13.29332105,"ECCENTRICITY":0.0001251,"INCLINATION":50.0057,"RA_OF_ASC_NODE":261.2689,"ARG_OF_PERICENTER":212.8177,"MEAN_ANOMALY":147.2617,"EPHEMERIS_TYPE":0,"NORAD_CAT_ID":67530,"ELEMENT_SET_NO":999,"REV_AT_EPOCH":2353,"BSTAR":0.00010007,"MEAN_MOTION_DOT":-7.8e-7,"MEAN_MOTION_DDOT":0},{"OBJECT_NAME":"HULIANWANG DIGUI-155","OBJECT_ID":"2026-047A","EPOCH":"2026-07-13T09:23:49.850016","CLASSIFICATION_TYPE":"U","MEAN_MOTION":13.29333766,"ECCENTRICITY":0.0000874,"INCLINATION":50.0048,"RA_OF_ASC_NODE":322.4016,"ARG_OF_PERICENTER":193.3119,"MEAN_ANOMALY":166.773,"EPHEMERIS_TYPE":0,"NORAD_CAT_ID":68129,"ELEMENT_SET_NO":999,"REV_AT_EPOCH":1655,"BSTAR":0.000044655,"MEAN_MOTION_DOT":-0.00000103,"MEAN_MOTION_DDOT":0}]}
